[{"OBJECT_ID":"2012-069A","OBJECT_NAME":"EUTE 70B","NORAD_CAT_ID":"39020","OBJECT_TYPE":"PAYLOAD","PERIOD":"1436.069","INCLINATION":"0.0624","APOGEE":"35796.378","PERIGEE":"35775.743","ECCENTRICITY":"0.0002447","MEAN_MOTION":"1.00273696","TLE_LINE1":"1 39020U 12069A   16238.87486356 -.00000072 +00000-0 +00000-0 0  9999","TLE_LINE2":"2 39020 000.0624 013.1367 0002447 133.0370 213.8355 01.00273696013581","LAUNCH_DATE":"2012-12-03","LAUNCH_SITE":"SEA LAUNCH","OWNER":"EUROPEAN TELECOMMUNICATIONS SATELLITE ORGANIZATION (EUTELSAT)","ORBIT_TYPE":"Geosynchronous","OPERATIONAL_STATUS":"Operational","satInfo":{"lng":79.73984576751079,"lat":0.41194027206752165,"elevation":-8.172230413752413,"azimuth":235.26015423248924,"range":42591.267198068934,"height":35781.71477249399,"velocity":3.0750746867174477},"x":295,"y":-51,"dx":0.5477259657286886,"dy":3.0259016169328743},{"OBJECT_ID":"2012-069B","OBJECT_NAME":"BLOCK DM-SL R/B","NORAD_CAT_ID":"39021","OBJECT_TYPE":"ROCKET BODY","PERIOD":"648.940","INCLINATION":"0.6598","APOGEE":"35533.889","PERIGEE":"1368.334","ECCENTRICITY":"0.6880103","MEAN_MOTION":"2.21900068","TLE_LINE1":"1 39021U 12069B   16238.86503783 -.00000142 +00000-0 +00000-0 0  9991","TLE_LINE2":"2 39021 000.6598 054.6292 6880103 055.1264 332.3339 02.21900068030223","LAUNCH_DATE":"2012-12-03","LAUNCH_SITE":"SEA LAUNCH","OWNER":"SEA LAUNCH DEMO","ORBIT_TYPE":"Highly Elliptical Orbit","OPERATIONAL_STATUS":"N/A, derelict rocket body","satInfo":{"lng":-176.16041436184344,"lat":1.2329179626647724,"elevation":-19.34664445009822,"azimuth":131.16041436184344,"range":18083.72478825206,"height":10688.369438025547,"velocity":5.5366848712157015},"x":-8,"y":85,"dx":-5.524257458291357,"dy":-0.37075449782995584},{"OBJECT_ID":"2012-070A","OBJECT_NAME":"YAMAL 402","NORAD_CAT_ID":"39022","OBJECT_TYPE":"PAYLOAD","PERIOD":"1436.070","INCLINATION":"0.0439","APOGEE":"35797.336","PERIGEE":"35774.829","ECCENTRICITY":"0.0002669","MEAN_MOTION":"1.00273618","TLE_LINE1":"1 39022U 12070A   16238.94191339  .00000058  00000-0  10000-3 0  9992","TLE_LINE2":"2 39022   0.0439 273.2122 0002669 216.4198 238.9634  1.00273618 13688","LAUNCH_DATE":"2012-12-08","LAUNCH_SITE":"TYURATAM MISSILE AND SPACE COMPLEX","OWNER":"COMMONWEALTH OF INDEPENDENT STATES","ORBIT_TYPE":"Geosynchronous","OPERATIONAL_STATUS":"Operational","satInfo":{"lng":95.09973167578184,"lat":-1.7164443609264173,"elevation":-10.249080582750084,"azimuth":219.90026832421816,"range":42817.78138106512,"height":35775.319640950074,"velocity":3.075461879572943},"x":299,"y":25,"dx":-0.27337667551917666,"dy":3.0632876074551705},{"OBJECT_ID":"2012-075A","OBJECT_NAME":"SKYNET 5D","NORAD_CAT_ID":"39034","OBJECT_TYPE":"PAYLOAD","PERIOD":"1436.105","INCLINATION":"0.071","APOGEE":"35801.968","PERIGEE":"35771.542","ECCENTRICITY":"0.0003608","MEAN_MOTION":"1.00271219","TLE_LINE1":"1 39034U 12075A   16238.96226713 +.00000072 +00000-0 +00000-0 0  9999","TLE_LINE2":"2 39034 000.0710 358.7882 0003608 169.4545 205.5358 01.00271219013242","LAUNCH_DATE":"2012-12-19","LAUNCH_SITE":"FRENCH GUIANA","OWNER":"UNITED KINGDOM","ORBIT_TYPE":"Geosynchronous","OPERATIONAL_STATUS":"Operational","satInfo":{"lng":96.86376508622513,"lat":0.076536410041654,"elevation":-8.501138101096721,"azimuth":218.13623491377487,"range":42622.669287043085,"height":35776.27148596792,"velocity":3.07532099311694},"x":298,"y":34,"dx":-0.36752846489207397,"dy":3.0532805370944605},{"OBJECT_ID":"2012-075B","OBJECT_NAME":"MEXSAT 3","NORAD_CAT_ID":"39035","OBJECT_TYPE":"PAYLOAD","PERIOD":"1436.097","INCLINATION":"0.0555","APOGEE":"35796.670","PERIGEE":"35776.549","ECCENTRICITY":"0.0002386","MEAN_MOTION":"1.0027174","TLE_LINE1":"1 39035U 12075B   16238.39095755 -.00000052  00000-0  00000+0 0  9995","TLE_LINE2":"2 39035   0.0555 253.4566 0002386 266.8283 199.7187  1.00271740 13550","LAUNCH_DATE":"2012-12-19","LAUNCH_SITE":"FRENCH GUIANA","OWNER":"MEXICO","ORBIT_TYPE":"Geosynchronous","OPERATIONAL_STATUS":"Operational","satInfo":{"lng":-105.6686241201999,"lat":1.580769500511379,"elevation":-7.027469544342001,"azimuth":60.66862412019987,"range":42463.82658944815,"height":35782.71363701341,"velocity":3.074767291935841},"x":-293,"y":77,"dx":-0.8304123139926979,"dy":-2.960508282090722},{"OBJECT_ID":"2013-006A","OBJECT_NAME":"AMAZONAS 3","NORAD_CAT_ID":"39078","OBJECT_TYPE":"PAYLOAD","PERIOD":"1436.102","INCLINATION":"0.0493","APOGEE":"35804.386","PERIGEE":"35769.035","ECCENTRICITY":"0.0004192","MEAN_MOTION":"1.00271379","TLE_LINE1":"1 39078U 13006A   16239.23904633 -.00000311  00000-0  00000+0 0  9993","TLE_LINE2":"2 39078   0.0493 241.5831 0004192 311.7816 166.6169  1.00271379 13056","LAUNCH_DATE":"2013-02-07","LAUNCH_SITE":"FRENCH GUIANA","OWNER":"SPAIN","ORBIT_TYPE":"Geosynchronous","OPERATIONAL_STATUS":"Operational","satInfo":{"lng":-71.23934584921284,"lat":1.9219802940824402,"elevation":-6.688631039475607,"azimuth":26.239345849212835,"range":42446.1827306257,"height":35802.85374208498,"velocity":3.0739575159677814},"x":-288,"y":-92,"dx":0.9886325107759305,"dy":-2.9106392027545587},{"OBJECT_ID":"2013-006B","OBJECT_NAME":"AZERSPACE 1","NORAD_CAT_ID":"39079","OBJECT_TYPE":"PAYLOAD","PERIOD":"1436.100","INCLINATION":"0.0145","APOGEE":"35793.204","PERIGEE":"35780.116","ECCENTRICITY":"0.0001552","MEAN_MOTION":"1.00271559","TLE_LINE1":"1 39079U 13006B   16239.12196480  .00000105  00000-0  00000+0 0  9995","TLE_LINE2":"2 39079   0.0145 225.0070 0001552 333.9463 225.7231  1.00271559 13017","LAUNCH_DATE":"2013-02-07","LAUNCH_SITE":"FRENCH GUIANA","OWNER":"AZERBAIJAN","ORBIT_TYPE":"Geosynchronous","OPERATIONAL_STATUS":"Operational","satInfo":{"lng":100.24060508854433,"lat":-1.494035539528216,"elevation":-10.03219542106487,"azimuth":214.7593949114557,"range":42796.05673157584,"height":35777.88561958368,"velocity":3.0750076504608446},"x":295,"y":50,"dx":-0.5466815876790284,"dy":3.0260223548555385},{"OBJECT_ID":"2013-012A","OBJECT_NAME":"EUTE 117 WEST A(SATMEX 8","NORAD_CAT_ID":"39122","OBJECT_TYPE":"PAYLOAD","PERIOD":"1436.106","INCLINATION":"0.0619","APOGEE":"35796.414","PERIGEE":"35777.145","ECCENTRICITY":"0.0002285","MEAN_MOTION":"1.00271131","TLE_LINE1":"1 39122U 13012A   16238.39647380 -.00000039  00000-0  00000+0 0  9996","TLE_LINE2":"2 39122   0.0619 270.6672 0002285 247.3268 202.0101  1.00271131 12548","LAUNCH_DATE":"2013-03-26","LAUNCH_SITE":"TYURATAM MISSILE AND SPACE COMPLEX","OWNER":"EUROPEAN TELECOMMUNICATIONS SATELLITE ORGANIZATION (EUTELSAT)","ORBIT_TYPE":"Geosynchronous","OPERATIONAL_STATUS":"Operational","satInfo":{"lng":-106.31350222724426,"lat":1.1276409785487447,"elevation":-7.471752041376646,"azimuth":61.31350222724423,"range":42512.86980411202,"height":35781.9166595907,"velocity":3.0747871283732087},"x":-292,"y":80,"dx":-0.8636858341052566,"dy":-2.950993504698963},{"OBJECT_ID":"2013-014A","OBJECT_NAME":"ANIK G1","NORAD_CAT_ID":"39127","OBJECT_TYPE":"PAYLOAD","PERIOD":"1436.101","INCLINATION":"0.039","APOGEE":"35794.444","PERIGEE":"35778.944","ECCENTRICITY":"0.0001838","MEAN_MOTION":"1.00271438","TLE_LINE1":"1 39127U 13014A   16238.37010704 -.00000100  00000-0  00000+0 0  9994","TLE_LINE2":"2 39127   0.0390 292.8306 0001838 272.9347 154.2200  1.00271438 12339","LAUNCH_DATE":"2013-04-15","LAUNCH_SITE":"TYURATAM MISSILE AND SPACE COMPLEX","OWNER":"CANADA","ORBIT_TYPE":"Geosynchronous","OPERATIONAL_STATUS":"Operational","satInfo":{"lng":-105.36304812459184,"lat":0.3199778853461828,"elevation":-8.262396757417623,"azimuth":60.36304812459185,"range":42600.0910546784,"height":35780.43537714012,"velocity":3.0750777133810985},"x":-294,"y":75,"dx":-0.8146935197137516,"dy":-2.9651943295962147},{"OBJECT_ID":"2013-020A","OBJECT_NAME":"CHINASAT 11","NORAD_CAT_ID":"39157","OBJECT_TYPE":"PAYLOAD","PERIOD":"1436.136","INCLINATION":"0.0128","APOGEE":"35789.356","PERIGEE":"35785.384","ECCENTRICITY":"4.71e-05","MEAN_MOTION":"1.00269027","TLE_LINE1":"1 39157U 13020A   16238.66004446 -.00000318 +00000-0 +00000-0 0  9994","TLE_LINE2":"2 39157 000.0128 147.6421 0000471 114.6080 047.7040 01.00269027012221","LAUNCH_DATE":"2013-05-01","LAUNCH_SITE":"Xichang Space Center, China","OWNER":"PEOPLES REPUBLIC OF CHINA","ORBIT_TYPE":"Geosynchronous","OPERATIONAL_STATUS":"Operational","satInfo":{"lng":52.36406433097927,"lat":-1.0353633190356137,"elevation":-9.58312364259591,"azimuth":262.63593566902074,"range":42758.2011953846,"height":35790.256183339145,"velocity":3.074488845010555},"x":237,"y":-175,"dx":1.877411908312624,"dy":2.434708644708908},{"OBJECT_ID":"2013-022A","OBJECT_NAME":"EUTE 7B (EUTE 3D)","NORAD_CAT_ID":"39163","OBJECT_TYPE":"PAYLOAD","PERIOD":"1436.091","INCLINATION":"0.0471","APOGEE":"35792.105","PERIGEE":"35780.864","ECCENTRICITY":"0.0001333","MEAN_MOTION":"1.00272186","TLE_LINE1":"1 39163U 13022A   16238.05355310  .00000022  00000-0  00000+0 0  9995","TLE_LINE2":"2 39163   0.0471  35.8175 0001333 337.4087 346.7722  1.00272186 12075","LAUNCH_DATE":"2013-05-14","LAUNCH_SITE":"TYURATAM MISSILE AND SPACE COMPLEX","OWNER":"EUROPEAN TELECOMMUNICATIONS SATELLITE ORGANIZATION (EUTELSAT)","ORBIT_TYPE":"Geosynchronous","OPERATIONAL_STATUS":"Operational","satInfo":{"lng":7.9785870077948635,"lat":0.4321630067716475,"elevation":-8.152015731701052,"azimuth":307.02141299220517,"range":42591.217767260576,"height":35783.90881939132,"velocity":3.075005242864441},"x":40,"y":-283,"dx":3.045239230119478,"dy":0.4268199561701936}]